[
    {
        "Altitude(m)": 559391.9842890785,
        "Argument of Periapsis(deg)": 0.033114955553567506,
        "Eccentricity": 0.0,
        "Inclination(deg)": 53.0,
        "Latitude(deg)": 50.929443227050996,
        "Longitude(deg)": -141.59739214426486,
        "Mean Anomaly(deg)": 75.91256433788796,
        "RAAN(deg)": 254.9507168426401,
        "Satellite Name": "Starlink Shell 1 1123",
        "Satellite Number": 1123,
        "Semi-Major Axis(m)": 6931778.249405717,
        "Time(s)": 950
    },
    {
        "Altitude(m)": 559435.2386438872,
        "Argument of Periapsis(deg)": 0.03346353403307874,
        "Eccentricity": 0.0,
        "Inclination(deg)": 53.0,
        "Latitude(deg)": 51.118181136281784,
        "Longitude(deg)": -140.69083540610012,
        "Mean Anomaly(deg)": 76.53939554144465,
        "RAAN(deg)": 254.95019807256264,
        "Satellite Name": "Starlink Shell 1 1123",
        "Satellite Number": 1123,
        "Semi-Major Axis(m)": 6931778.249405717,
        "Time(s)": 960
    },
    {
        "Altitude(m)": 559476.7032745277,
        "Argument of Periapsis(deg)": 0.03381211251258998,
        "Eccentricity": 0.0,
        "Inclination(deg)": 53.0,
        "Latitude(deg)": 51.29917218634448,
        "Longitude(deg)": -139.7766897682069,
        "Mean Anomaly(deg)": 77.16622674500135,
        "RAAN(deg)": 254.94967930248515,
        "Satellite Name": "Starlink Shell 1 1123",
        "Satellite Number": 1123,
        "Semi-Major Axis(m)": 6931778.249405717,
        "Time(s)": 970
    },
    {
        "Altitude(m)": 559516.3531390632,
        "Argument of Periapsis(deg)": 0.034160690992101214,
        "Eccentricity": 0.0,
        "Inclination(deg)": 53.0,
        "Latitude(deg)": 51.47230579878253,
        "Longitude(deg)": -138.8551708193238,
        "Mean Anomaly(deg)": 77.79305794855809,
        "RAAN(deg)": 254.94916053240763,
        "Satellite Name": "Starlink Shell 1 1123",
        "Satellite Number": 1123,
        "Semi-Major Axis(m)": 6931778.249405717,
        "Time(s)": 980
    },
    {
        "Altitude(m)": 559554.1643123908,
        "Argument of Periapsis(deg)": 0.034509269471612446,
        "Eccentricity": 0.0,
        "Inclination(deg)": 53.0,
        "Latitude(deg)": 51.63747426102008,
        "Longitude(deg)": -137.9265100908726,
        "Mean Anomaly(deg)": 78.41988915211479,
        "RAAN(deg)": 254.94864176233023,
        "Satellite Name": "Starlink Shell 1 1123",
        "Satellite Number": 1123,
        "Semi-Major Axis(m)": 6931778.249405717,
        "Time(s)": 990
    }
]